*******************************************************************************
Ephemeris / WWW_USER Mon Mar 10 07:18:56 2025 Pasadena, USA      / Horizons    
*******************************************************************************
Target body name: (2018 PU7)                      {source: JPL#13}
Center body name: Earth (399)                     {source: DE441}
Center-site name: Mauna Kea
*******************************************************************************
Start time      : A.D. 2018-Sep-04 04:44:00.0000 UT      
Stop  time      : A.D. 2018-Sep-04 15:57:00.0000 UT      
Step-size       : 1 minutes
*******************************************************************************
Target pole/equ : undefined
Target radii    : undefined                                                    
Center geodetic : 204.5278, 19.8260847, 4.21024   {E-lon(deg),Lat(deg),Alt(km)}
Center cylindric: 204.5278, 6006.35451, 2151.0229 {E-lon(deg),Dxy(km),Dz(km)}
Center pole/equ : ITRF93                          {East-longitude positive}
Center radii    : 6378.137, 6378.137, 6356.752 km {Equator_a, b, pole_c}       
Target primary  : Sun
Vis. interferer : MOON (R_eq= 1737.400) km        {source: DE441}
Rel. light bend : Sun                             {source: DE441}
Rel. lght bnd GM: 1.3271E+11 km^3/s^2                                          
Small-body perts: Yes                             {source: SB441-N16}
Atmos refraction: NO (AIRLESS)
RA format       : HMS
Time format     : CAL 
Calendar mode   : Mixed Julian/Gregorian
RTS-only print  : NO       
EOP file        : eop.250307.p250603                                           
EOP coverage    : DATA-BASED 1962-JAN-20 TO 2025-MAR-07. PREDICTS-> 2025-JUN-02
Units conversion: 1 au= 149597870.700 km, c= 299792.458 km/s, 1 day= 86400.0 s 
Table cut-offs 1: Elevation (-90.0deg=NO ),Airmass (>38.000=NO), Daylight (YES)
Table cut-offs 2: Solar elongation (  0.0,180.0=NO ),Local Hour Angle( 0.0=NO )
Table cut-offs 3: RA/DEC angular rate (     0.0=NO )                           
*******************************************************************************
Initial IAU76/J2000 heliocentric ecliptic osculating elements (au, days, deg.):
  EPOCH=  2458344.5 ! 2018-Aug-14.00 (TDB)         Residual RMS= .35253        
   EC= .5418411610879256   QR= .9908981152950816   TP= 2458306.0483912583      
   OM= 307.3200871504195   W=  329.2166965634538   IN= 6.906215163822786       
  Equivalent ICRF heliocentric cartesian coordinates (au, au/d):
   X= 8.533350742151261E-01  Y=-6.504796009993946E-01  Z=-2.480927258064065E-01
  VX= 1.615085148536055E-02 VY= 9.661045842052620E-03 VZ= 6.810490395822813E-03
Asteroid physical parameters (km, seconds, rotational period in hours):        
   GM= n.a.                RAD= n.a.               ROTPER= n.a.                
   H= 23.4                 G= .150                 B-V= n.a.                   
                           ALBEDO= n.a.            STYP= n.a.                  
*******************************************************************************
 Date__(UT)__HR:MN     R.A._________(ICRF)_________DEC
******************************************************
$$SOE
 2018-Sep-04 12:56  m  21 51 45.204132 +08 10 31.62718
 2018-Sep-04 12:57  m  21 51 45.242425 +08 10 31.59502
 2018-Sep-04 12:58  m  21 51 45.280754 +08 10 31.56280
 2018-Sep-04 12:59  m  21 51 45.319119 +08 10 31.53051
 2018-Sep-04 13:00  m  21 51 45.357520 +08 10 31.49814
 2018-Sep-04 13:01  m  21 51 45.395956 +08 10 31.46571
 2018-Sep-04 13:02  m  21 51 45.434429 +08 10 31.43321
 2018-Sep-04 13:03  m  21 51 45.472937 +08 10 31.40065
 2018-Sep-04 13:04  m  21 51 45.511482 +08 10 31.36801
 2018-Sep-04 13:05  m  21 51 45.550064 +08 10 31.33531
 2018-Sep-04 13:06  m  21 51 45.588681 +08 10 31.30254
 2018-Sep-04 13:07  m  21 51 45.627336 +08 10 31.26970
 2018-Sep-04 13:08  m  21 51 45.666027 +08 10 31.23679
 2018-Sep-04 13:09  m  21 51 45.704754 +08 10 31.20382
 2018-Sep-04 13:10  m  21 51 45.743519 +08 10 31.17079
 2018-Sep-04 13:11  m  21 51 45.782321 +08 10 31.13769
 2018-Sep-04 13:12  m  21 51 45.821159 +08 10 31.10452
 2018-Sep-04 13:13  m  21 51 45.860035 +08 10 31.07129
 2018-Sep-04 13:14  m  21 51 45.898949 +08 10 31.03800
 2018-Sep-04 13:15  m  21 51 45.937899 +08 10 31.00464
 2018-Sep-04 13:16  m  21 51 45.976887 +08 10 30.97121
 2018-Sep-04 13:17  m  21 51 46.015913 +08 10 30.93773
 2018-Sep-04 13:18  m  21 51 46.054977 +08 10 30.90418
 2018-Sep-04 13:19  m  21 51 46.094078 +08 10 30.87057
 2018-Sep-04 13:20  m  21 51 46.133217 +08 10 30.83689
 2018-Sep-04 13:21  m  21 51 46.172394 +08 10 30.80316
 2018-Sep-04 13:22  m  21 51 46.211609 +08 10 30.76936
 2018-Sep-04 13:23  m  21 51 46.250863 +08 10 30.73550
 2018-Sep-04 13:24  m  21 51 46.290154 +08 10 30.70159
 2018-Sep-04 13:25  m  21 51 46.329484 +08 10 30.66761
 2018-Sep-04 13:26  m  21 51 46.368853 +08 10 30.63357
 2018-Sep-04 13:27  m  21 51 46.408260 +08 10 30.59947
 2018-Sep-04 13:28  m  21 51 46.447705 +08 10 30.56531
 2018-Sep-04 13:29  m  21 51 46.487189 +08 10 30.53110
 2018-Sep-04 13:30  m  21 51 46.526713 +08 10 30.49682
 2018-Sep-04 13:31  m  21 51 46.566275 +08 10 30.46249
 2018-Sep-04 13:32  m  21 51 46.605876 +08 10 30.42810
 2018-Sep-04 13:33  m  21 51 46.645516 +08 10 30.39365
 2018-Sep-04 13:34  m  21 51 46.685195 +08 10 30.35914
 2018-Sep-04 13:35  m  21 51 46.724914 +08 10 30.32458
 2018-Sep-04 13:36  m  21 51 46.764671 +08 10 30.28996
 2018-Sep-04 13:37  m  21 51 46.804469 +08 10 30.25529
 2018-Sep-04 13:38  m  21 51 46.844305 +08 10 30.22056
 2018-Sep-04 13:39  m  21 51 46.884182 +08 10 30.18578
 2018-Sep-04 13:40  m  21 51 46.924098 +08 10 30.15094
 2018-Sep-04 13:41  m  21 51 46.964054 +08 10 30.11605
 2018-Sep-04 13:42  m  21 51 47.004049 +08 10 30.08110
 2018-Sep-04 13:43  m  21 51 47.044085 +08 10 30.04610
 2018-Sep-04 13:44  m  21 51 47.084160 +08 10 30.01104
 2018-Sep-04 13:45  m  21 51 47.124276 +08 10 29.97594
 2018-Sep-04 13:46  m  21 51 47.164431 +08 10 29.94078
 2018-Sep-04 13:47  m  21 51 47.204627 +08 10 29.90557
 2018-Sep-04 13:48  m  21 51 47.244863 +08 10 29.87030
 2018-Sep-04 13:49  m  21 51 47.285140 +08 10 29.83499
 2018-Sep-04 13:50  m  21 51 47.325457 +08 10 29.79963
 2018-Sep-04 13:51  m  21 51 47.365814 +08 10 29.76421
 2018-Sep-04 13:52  m  21 51 47.406212 +08 10 29.72875
 2018-Sep-04 13:53  m  21 51 47.446651 +08 10 29.69323
 2018-Sep-04 13:54  m  21 51 47.487130 +08 10 29.65767
 2018-Sep-04 13:55  m  21 51 47.527650 +08 10 29.62205
 2018-Sep-04 13:56  m  21 51 47.568211 +08 10 29.58639
 2018-Sep-04 13:57  m  21 51 47.608813 +08 10 29.55068
 2018-Sep-04 13:58  m  21 51 47.649456 +08 10 29.51492
 2018-Sep-04 13:59  m  21 51 47.690140 +08 10 29.47912
 2018-Sep-04 14:00  m  21 51 47.730865 +08 10 29.44327
 2018-Sep-04 14:01  m  21 51 47.771632 +08 10 29.40737
 2018-Sep-04 14:02  m  21 51 47.812439 +08 10 29.37142
 2018-Sep-04 14:03  m  21 51 47.853288 +08 10 29.33543
 2018-Sep-04 14:04  m  21 51 47.894178 +08 10 29.29940
 2018-Sep-04 14:05  m  21 51 47.935110 +08 10 29.26332
 2018-Sep-04 14:06  m  21 51 47.976083 +08 10 29.22719
 2018-Sep-04 14:07  m  21 51 48.017098 +08 10 29.19102
 2018-Sep-04 14:08  m  21 51 48.058154 +08 10 29.15481
 2018-Sep-04 14:09  m  21 51 48.099252 +08 10 29.11855
 2018-Sep-04 14:10  m  21 51 48.140392 +08 10 29.08225
 2018-Sep-04 14:11  m  21 51 48.181573 +08 10 29.04591
 2018-Sep-04 14:12  m  21 51 48.222797 +08 10 29.00953
 2018-Sep-04 14:13  m  21 51 48.264062 +08 10 28.97310
 2018-Sep-04 14:14  m  21 51 48.305369 +08 10 28.93663
 2018-Sep-04 14:15  m  21 51 48.346719 +08 10 28.90012
 2018-Sep-04 14:16  m  21 51 48.388110 +08 10 28.86358
 2018-Sep-04 14:17  m  21 51 48.429543 +08 10 28.82699
 2018-Sep-04 14:18  m  21 51 48.471019 +08 10 28.79036
 2018-Sep-04 14:19  m  21 51 48.512537 +08 10 28.75369
 2018-Sep-04 14:20  m  21 51 48.554097 +08 10 28.71698
 2018-Sep-04 14:21  m  21 51 48.595699 +08 10 28.68024
 2018-Sep-04 14:22  m  21 51 48.637344 +08 10 28.64345
 2018-Sep-04 14:23  m  21 51 48.679031 +08 10 28.60663
 2018-Sep-04 14:24  m  21 51 48.720761 +08 10 28.56977
 2018-Sep-04 14:25  m  21 51 48.762533 +08 10 28.53288
 2018-Sep-04 14:26  m  21 51 48.804347 +08 10 28.49594
 2018-Sep-04 14:27  m  21 51 48.846205 +08 10 28.45898
 2018-Sep-04 14:28  m  21 51 48.888104 +08 10 28.42197
 2018-Sep-04 14:29  m  21 51 48.930047 +08 10 28.38493
 2018-Sep-04 14:30  m  21 51 48.972032 +08 10 28.34786
 2018-Sep-04 14:31  m  21 51 49.014060 +08 10 28.31075
 2018-Sep-04 14:32  m  21 51 49.056131 +08 10 28.27361
 2018-Sep-04 14:33  m  21 51 49.098244 +08 10 28.23643
 2018-Sep-04 14:34  m  21 51 49.140401 +08 10 28.19922
 2018-Sep-04 14:35  m  21 51 49.182600 +08 10 28.16198
 2018-Sep-04 14:36  m  21 51 49.224842 +08 10 28.12470
 2018-Sep-04 14:37  m  21 51 49.267127 +08 10 28.08740
 2018-Sep-04 14:38  m  21 51 49.309455 +08 10 28.05006
 2018-Sep-04 14:39  m  21 51 49.351827 +08 10 28.01269
 2018-Sep-04 14:40  m  21 51 49.394241 +08 10 27.97529
 2018-Sep-04 14:41  m  21 51 49.436698 +08 10 27.93786
 2018-Sep-04 14:42  m  21 51 49.479199 +08 10 27.90040
 2018-Sep-04 14:43  m  21 51 49.521742 +08 10 27.86291
 2018-Sep-04 14:44  m  21 51 49.564329 +08 10 27.82539
 2018-Sep-04 14:45  m  21 51 49.606959 +08 10 27.78784
 2018-Sep-04 14:46  m  21 51 49.649633 +08 10 27.75026
 2018-Sep-04 14:47  m  21 51 49.692349 +08 10 27.71266
 2018-Sep-04 14:48  m  21 51 49.735109 +08 10 27.67503
 2018-Sep-04 14:49  m  21 51 49.777912 +08 10 27.63737
 2018-Sep-04 14:50  m  21 51 49.820759 +08 10 27.59968
 2018-Sep-04 14:51  m  21 51 49.863649 +08 10 27.56197
 2018-Sep-04 14:52  m  21 51 49.906582 +08 10 27.52423
 2018-Sep-04 14:53 Am  21 51 49.949559 +08 10 27.48647
 2018-Sep-04 14:54 Am  21 51 49.992579 +08 10 27.44868
 2018-Sep-04 14:55 Am  21 51 50.035642 +08 10 27.41087
 2018-Sep-04 14:56 Am  21 51 50.078749 +08 10 27.37304
 2018-Sep-04 14:57 Am  21 51 50.121900 +08 10 27.33518
 2018-Sep-04 14:58 Am  21 51 50.165094 +08 10 27.29729
